{"type": "FeatureCollection", "features": [ {"type": "Feature", "properties": {"norad_id": 37834, "name": "INTELSAT 18 (IS-18)", "group": "intelsat", "lat": -0.02043489690631738, "lon": -169.26458286471083, "alt_km": 35783.41896206634, "timestamp": "2025-12-08T19:31:48.495594+00:00", "meta": {"OBJECT_NAME": "INTELSAT 18 (IS-18)", "OBJECT_ID": "2011-056A", "EPOCH": "2025-12-08T05:53:56.845248", "MEAN_MOTION": 1.00270824, "ECCENTRICITY": 0.00021057, "INCLINATION": 0.0173, "RA_OF_ASC_NODE": 337.4993, "ARG_OF_PERICENTER": 284.3254, "MEAN_ANOMALY": 83.9147, "EPHEMERIS_TYPE": 0, "CLASSIFICATION_TYPE": "U", "NORAD_CAT_ID": 37834, "ELEMENT_SET_NO": 999, "REV_AT_EPOCH": 5189, "BSTAR": 0, "MEAN_MOTION_DOT": 5.5e-07, "MEAN_MOTION_DDOT": 0}, "tle": {"line1": "1 37834U 11056A   25342.24579682  .00000055  00000+0  00000+0 0  9995", "line2": "2 37834   0.0173 337.4993 0002105 284.3254  83.9147  1.00270824 51891"}}, "geometry": {"type": "Point", "coordinates": [-169.26458286471083, -0.02043489690631738]}}, {"type": "Feature", "properties": {"norad_id": 38098, "name": "INTELSAT 22 (IS-22)", "group": "intelsat", "lat": 0.024713892305050347, "lon": 82.8714026284185, "alt_km": 35793.58195858748, "timestamp": "2025-12-08T19:31:48.495605+00:00", "meta": {"OBJECT_NAME": "INTELSAT 22 (IS-22)", "OBJECT_ID": "2012-011A", "EPOCH": "2025-12-08T03:40:24.636288", "MEAN_MOTION": 1.00271218, "ECCENTRICITY": 0.00017409, "INCLINATION": 0.011, "RA_OF_ASC_NODE": 33.0436, "ARG_OF_PERICENTER": 233.7123, "MEAN_ANOMALY": 297.619, "EPHEMERIS_TYPE": 0, "CLASSIFICATION_TYPE": "U", "NORAD_CAT_ID": 38098, "ELEMENT_SET_NO": 999, "REV_AT_EPOCH": 527, "BSTAR": 0, "MEAN_MOTION_DOT": -5.6e-07, "MEAN_MOTION_DDOT": 0}, "tle": {"line1": "1 38098U 12011A   25342.15306292 -.00000056  00000+0  00000+0 0  9997", "line2": "2 38098   0.0110  33.0436 0001740 233.7123 297.6190  1.00271218  5274"}}, "geometry": {"type": "Point", "coordinates": [82.8714026284185, 0.024713892305050347]}}, {"type": "Feature", "properties": {"norad_id": 38356, "name": "INTELSAT 19 (IS-19)", "group": "intelsat", "lat": -0.013205852967069708, "lon": 176.72408415921745, "alt_km": 35785.59609258881, "timestamp": "2025-12-08T19:31:48.495616+00:00", "meta": {"OBJECT_NAME": "INTELSAT 19 (IS-19)", "OBJECT_ID": "2012-030A", "EPOCH": "2025-12-08T05:49:57.227808", "MEAN_MOTION": 1.00271382, "ECCENTRICITY": 0.00035673, "INCLINATION": 0.011, "RA_OF_ASC_NODE": 324.9676, "ARG_OF_PERICENTER": 299.563, "MEAN_ANOMALY": 66.2134, "EPHEMERIS_TYPE": 0, "CLASSIFICATION_TYPE": "U", "NORAD_CAT_ID": 38356, "ELEMENT_SET_NO": 999, "REV_AT_EPOCH": 4853, "BSTAR": 0, "MEAN_MOTION_DOT": -5.4e-07, "MEAN_MOTION_DDOT": 0}, "tle": {"line1": "1 38356U 12030A   25342.24302347 -.00000054  00000+0  00000+0 0  9990", "line2": "2 38356   0.0110 324.9676 0003567 299.5630  66.2134  1.00271382 48537"}}, "geometry": {"type": "Point", "coordinates": [176.72408415921745, -0.013205852967069708]}}, {"type": "Feature", "properties": {"norad_id": 38740, "name": "INTELSAT 20 (IS-20)", "group": "intelsat", "lat": 0.0018336463362860723, "lon": 79.18942792435716, "alt_km": 35789.83579491603, "timestamp": "2025-12-08T19:31:48.495627+00:00", "meta": {"OBJECT_NAME": "INTELSAT 20 (IS-20)", "OBJECT_ID": "2012-043A", "EPOCH": "2025-12-07T20:48:32.291424", "MEAN_MOTION": 1.00256173, "ECCENTRICITY": 0.00026391, "INCLINATION": 0.0039, "RA_OF_ASC_NODE": 83.3168, "ARG_OF_PERICENTER": 82.8308, "MEAN_ANOMALY": 291.3783, "EPHEMERIS_TYPE": 0, "CLASSIFICATION_TYPE": "U", "NORAD_CAT_ID": 38740, "ELEMENT_SET_NO": 999, "REV_AT_EPOCH": 4883, "BSTAR": 0, "MEAN_MOTION_DOT": -1.8e-07, "MEAN_MOTION_DDOT": 0}, "tle": {"line1": "1 38740U 12043A   25341.86704041 -.00000018  00000+0  00000+0 0  9995", "line2": "2 38740   0.0039  83.3168 0002639  82.8308 291.3783  1.00256173 48835"}}, "geometry": {"type": "Point", "coordinates": [79.18942792435716, 0.0018336463362860723]}}, {"type": "Feature", "properties": {"norad_id": 38749, "name": "INTELSAT 21 (IS-21)", "group": "intelsat", "lat": -0.02496028459726336, "lon": -47.21211756830688, "alt_km": 35781.638045673266, "timestamp": "2025-12-08T19:31:48.495638+00:00", "meta": {"OBJECT_NAME": "INTELSAT 21 (IS-21)", "OBJECT_ID": "2012-045A", "EPOCH": "2025-12-08T06:28:46.010208", "MEAN_MOTION": 1.00270712, "ECCENTRICITY": 0.00022139, "INCLINATION": 0.0161, "RA_OF_ASC_NODE": 3.9674, "ARG_OF_PERICENTER": 249.6294, "MEAN_ANOMALY": 222.8794, "EPHEMERIS_TYPE": 0, "CLASSIFICATION_TYPE": "U", "NORAD_CAT_ID": 38749, "ELEMENT_SET_NO": 999, "REV_AT_EPOCH": 4861, "BSTAR": 0, "MEAN_MOTION_DOT": -2.82e-06, "MEAN_MOTION_DDOT": 0}, "tle": {"line1": "1 38749U 12045A   25342.26997697 -.00000282  00000+0  00000+0 0  9995", "line2": "2 38749   0.0161   3.9674 0002213 249.6294 222.8794  1.00270712 48617"}}, "geometry": {"type": "Point", "coordinates": [-47.21211756830688, -0.02496028459726336]}}, {"type": "Feature", "properties": {"norad_id": 38867, "name": "INTELSAT 23 (IS-23)", "group": "intelsat", "lat": -0.04045800237467185, "lon": -42.22928319577724, "alt_km": 35781.296478513956, "timestamp": "2025-12-08T19:31:48.495648+00:00", "meta": {"OBJECT_NAME": "INTELSAT 23 (IS-23)", "OBJECT_ID": "2012-057A", "EPOCH": "2025-12-08T04:02:55.597920", "MEAN_MOTION": 1.00271689, "ECCENTRICITY": 0.00014691, "INCLINATION": 0.0491, "RA_OF_ASC_NODE": 94.9211, "ARG_OF_PERICENTER": 184.9137, "MEAN_ANOMALY": 165.0739, "EPHEMERIS_TYPE": 0, "CLASSIFICATION_TYPE": "U", "NORAD_CAT_ID": 38867, "ELEMENT_SET_NO": 999, "REV_AT_EPOCH": 4804, "BSTAR": 0, "MEAN_MOTION_DOT": -2.82e-06, "MEAN_MOTION_DDOT": 0}, "tle": {"line1": "1 38867U 12057A   25342.16869905 -.00000282  00000+0  00000+0 0  9998", "line2": "2 38867   0.0491  94.9211 0001469 184.9137 165.0739  1.00271689 48048"}}, "geometry": {"type": "Point", "coordinates": [-42.22928319577724, -0.04045800237467185]}}, {"type": "Feature", "properties": {"norad_id": 39360, "name": "FM-6", "group": "intelsat", "lat": -0.007934913088520165, "lon": -105.34857087826353, "alt_km": 35784.642067748915, "timestamp": "2025-12-08T19:31:48.495658+00:00", "meta": {"OBJECT_NAME": "FM-6", "OBJECT_ID": "2013-058A", "EPOCH": "2025-12-08T01:04:02.112960", "MEAN_MOTION": 1.00270486, "ECCENTRICITY": 0.00029578, "INCLINATION": 0.0029, "RA_OF_ASC_NODE": 62.3339, "ARG_OF_PERICENTER": 110.4805, "MEAN_ANOMALY": 164.1097, "EPHEMERIS_TYPE": 0, "CLASSIFICATION_TYPE": "U", "NORAD_CAT_ID": 39360, "ELEMENT_SET_NO": 999, "REV_AT_EPOCH": 4415, "BSTAR": 0, "MEAN_MOTION_DOT": -1.4e-07, "MEAN_MOTION_DDOT": 0}, "tle": {"line1": "1 39360U 13058A   25342.04446890 -.00000014  00000+0  00000+0 0  9993", "line2": "2 39360   0.0029  62.3339 0002957 110.4805 164.1097  1.00270486 44152"}}, "geometry": {"type": "Point", "coordinates": [-105.34857087826353, -0.007934913088520165]}}, {"type": "Feature", "properties": {"norad_id": 40271, "name": "INTELSAT 30 (IS-30)", "group": "intelsat", "lat": -0.03248756558442444, "lon": -84.29908955047972, "alt_km": 35791.63120034064, "timestamp": "2025-12-08T19:31:48.495669+00:00", "meta": {"OBJECT_NAME": "INTELSAT 30 (IS-30)", "OBJECT_ID": "2014-062A", "EPOCH": "2025-12-08T06:04:13.152864", "MEAN_MOTION": 1.00270152, "ECCENTRICITY": 0.00012295, "INCLINATION": 0.0139, "RA_OF_ASC_NODE": 16.3948, "ARG_OF_PERICENTER": 65.9608, "MEAN_ANOMALY": 350.9061, "EPHEMERIS_TYPE": 0, "CLASSIFICATION_TYPE": "U", "NORAD_CAT_ID": 40271, "ELEMENT_SET_NO": 999, "REV_AT_EPOCH": 486, "BSTAR": 0, "MEAN_MOTION_DOT": -1.48e-06, "MEAN_MOTION_DDOT": 0}, "tle": {"line1": "1 40271U 14062A   25342.25293001 -.00000148  00000+0  00000+0 0  9997", "line2": "2 40271   0.0139  16.3948 0001229  65.9608 350.9061  1.00270152  4868"}}, "geometry": {"type": "Point", "coordinates": [-84.29908955047972, -0.03248756558442444]}}, {"type": "Feature", "properties": {"norad_id": 40333, "name": "DIRECTV 14", "group": "intelsat", "lat": -0.036089800901949395, "lon": -88.45439976472011, "alt_km": 35785.6157942183, "timestamp": "2025-12-08T19:31:48.495679+00:00", "meta": {"OBJECT_NAME": "DIRECTV 14", "OBJECT_ID": "2014-078B", "EPOCH": "2025-12-08T06:01:18.292224", "MEAN_MOTION": 1.00270581, "ECCENTRICITY": 3.303e-05, "INCLINATION": 0.018, "RA_OF_ASC_NODE": 335.5374, "ARG_OF_PERICENTER": 241.9777, "MEAN_ANOMALY": 210.8536, "EPHEMERIS_TYPE": 0, "CLASSIFICATION_TYPE": "U", "NORAD_CAT_ID": 40333, "ELEMENT_SET_NO": 999, "REV_AT_EPOCH": 4012, "BSTAR": 0, "MEAN_MOTION_DOT": -1.23e-06, "MEAN_MOTION_DDOT": 0}, "tle": {"line1": "1 40333U 14078B   25342.25090616 -.00000123  00000+0  00000+0 0  9993", "line2": "2 40333   0.0180 335.5374 0000330 241.9777 210.8536  1.00270581 40123"}}, "geometry": {"type": "Point", "coordinates": [-88.45439976472011, -0.036089800901949395]}}, {"type": "Feature", "properties": {"norad_id": 40663, "name": "DIRECTV 15", "group": "intelsat", "lat": -0.024235294085907726, "lon": -92.09455405263458, "alt_km": 35784.9411258277, "timestamp": "2025-12-08T19:31:48.495690+00:00", "meta": {"OBJECT_NAME": "DIRECTV 15", "OBJECT_ID": "2015-026A", "EPOCH": "2025-12-08T00:50:22.714368", "MEAN_MOTION": 1.00270696, "ECCENTRICITY": 3.891e-05, "INCLINATION": 0.0373, "RA_OF_ASC_NODE": 79.3662, "ARG_OF_PERICENTER": 160.7225, "MEAN_ANOMALY": 106.6968, "EPHEMERIS_TYPE": 0, "CLASSIFICATION_TYPE": "U", "NORAD_CAT_ID": 40663, "ELEMENT_SET_NO": 999, "REV_AT_EPOCH": 3854, "BSTAR": 0, "MEAN_MOTION_DOT": -1e-06, "MEAN_MOTION_DDOT": 0}, "tle": {"line1": "1 40663U 15026A   25342.03498512 -.00000100  00000+0  00000+0 0  9991", "line2": "2 40663   0.0373  79.3662 0000389 160.7225 106.6968  1.00270696 38547"}}, "geometry": {"type": "Point", "coordinates": [-92.09455405263458, -0.024235294085907726]}}]}